SILU-1 (SILKROAD 1)     
1 42903U 17021F   18254.16644793  .00024857  00000-0  15870-3 0  9999
2 42903  42.7761 165.9102 0013703 196.5603 309.7689 15.75720242 63472
MIRATA                  
1 43015U 17073C   18253.85308785  .00001282  00000-0  10626-3 0  9995
2 43015  97.7046 181.2817 0257660 352.9652   6.7969 14.78322625 43794
MAKERSAT 0              
1 43016U 17073D   18253.36473662  .00000879  00000-0  74347-4 0  9991
2 43016  97.7075 180.9603 0259107 354.6258   5.2182 14.78275604 43712
ASTERIA                 
1 43020U 98067NH  18254.16808998  .00007880  00000-0  97588-4 0  9992
2 43020  51.6412 301.8627 0002541 116.0522 244.0734 15.61116180 45919
DELLINGR (RBLE)         
1 43021U 98067NJ  18254.14229270  .00003798  00000-0  55118-4 0  9998
2 43021  51.6397 304.6489 0002600 110.5768 249.5503 15.58575060 45877
OSIRIS-3U               
1 43027U 98067NL  18254.13748217  .00025581  00000-0  21914-3 0  9990
2 43027  51.6359 294.0644 0003331  72.8172 287.3190 15.69245444 45893
AEROCUBE 7B             
1 43042U 17071F   18253.50414152  .00001437  00000-0  46318-4 0  9991
2 43042  51.6402 345.7308 0004706 210.9740 149.0968 15.39338155 42740
AEROCUBE 7C             
1 43043U 17071G   18253.76382410  .00001531  00000-0  48682-4 0  9992
2 43043  51.6404 344.4712 0004797 213.6904 146.3776 15.39342167 42756
CHEFSAT                 
1 43044U 17071H   18254.23374878  .00004073  00000-0  10837-3 0  9999
2 43044  51.6409 340.8959 0004724 215.7062 144.3607 15.40563478 42846
ASGARDIA 1              
1 43049U 17071N   18253.47789416  .00001864  00000-0  56820-4 0  9995
2 43049  51.6408 345.5712 0002184 229.5398 130.5397 15.39458456 42707
ISARA                   
1 43050U 17071P   18253.46733766  .00003299  00000-0  90301-4 0  9999
2 43050  51.6403 344.7676 0002103 227.1673 132.9135 15.40327858 42715
FAUNA                   
1 43052U 17071R   18253.52322656  .00002079  00000-0  61926-4 0  9996
2 43052  51.6407 345.1349 0002099 224.9097 135.1718 15.39619778 42717
CORVUS BC3              
1 43118U 18004H   18254.18437117  .00000516  00000-0  25447-4 0  9990
2 43118  97.5254 316.9127 0011501 147.1892 213.0060 15.22378158 36799
MICROMAS-2A             
1 43131U 18004W   18253.78063858  .00001168  00000-0  52595-4 0  9995
2 43131  97.5266 316.7066 0010593 150.6903 209.4929 15.23076067 36742
GOMX4-B                 
1 43196U 18015E   18253.25549977  .00000297  00000-0  15241-4 0  9990
2 43196  97.3557  20.4950 0018016 214.6374 145.3692 15.23734116 33485
GOMX4-A                 
1 43197U 18015F   18254.19302147  .00000420  00000-0  20361-4 0  9998
2 43197  97.3577  21.4173 0018307 211.6619 268.6662 15.23742340 33639
1KUNS-PF                
1 43466U 98067NP  18254.20856233  .00009057  00000-0  12801-3 0  9998
2 43466  51.6391 308.0820 0001162  49.9487 310.1607 15.57348329 19096
UBAKUSAT                
1 43467U 98067NQ  18254.15988032  .00006569  00000-0  96517-4 0  9998
2 43467  51.6395 308.5105 0003120  82.1715 277.9631 15.56833613 19092
BATSU-CS1 (IRAZU)       
1 43468U 98067NR  18254.19073018  .00008743  00000-0  12184-3 0  9995
2 43468  51.6394 307.9634 0001208  37.2326 322.8750 15.57783076119086
CUBERRT                 
1 43546U 98067NU  18254.20494787  .00007831  00000-0  11964-3 0  9996
2 43546  51.6392 309.5511 0005760 151.6152 208.5154 15.55436091  9219
TEMPEST-D               
1 43547U 98067NV  18254.14644326  .00001770  00000-0  32916-4 0  9993
2 43547  51.6400 309.9101 0006083 152.9485 207.1824 15.55083316  8880
HALOSAT                 
1 43549U 98067NX  18254.14611500  .00003272  00000-0  54412-4 0  9997
2 43549  51.6396 309.9083 0005768 160.9686 199.1521 15.55289381  8891
ENDUROSAT ONE           
1 43551U 98067NZ  18254.19895174  .00007616  00000-0  11541-3 0  9997
2 43551  51.6392 309.5115 0005986 170.3697 189.7410 15.55707372  9316
EQUISAT                 
1 43552U 98067PA  18253.62220430  .00005087  00000-0  79773-4 0  9994
2 43552  51.6397 312.4104 0006307 168.8389 191.2743 15.55588429  9183
AEROCUBE 12A            
1 43556U 18046C   18252.68205576  .00001525  00000-0  68225-4 0  9999
2 43556  51.6439 328.4657 0008885 140.8937 219.2686 15.27782158  8434
AEROCUBE 12B            
1 43557U 18046D   18253.46708297  .00001154  00000-0  54799-4 0  9994
2 43557  51.6440 324.7064 0008855 143.4274 216.7312 15.27769545  8509
UITMSAT-1               
1 43589U 98067PD  18252.62119202  .00005467  00000-0  86704-4 0  9991
2 43589  51.6399 317.7225 0005618 174.5397 185.5656 15.55100138  4769
MAYA-1                  
1 43590U 98067PE  18253.39177062  .00005273  00000-0  83768-4 0  9998
2 43590  51.6397 313.8690 0005688 178.4636 181.6374 15.55137941  4810
BHUTAN-1                
1 43591U 98067PF  18252.49141045  .00005626  00000-0  88817-4 0  9993
2 43591  51.6401 318.3559 0005819 176.5107 183.5925 15.55165031  4677
SIRIUSSAT 1             
1 43595U 98067PG  18253.46470679  .00004941  00000-0  80024-4 0  9994
2 43595  51.6399 313.6020 0003750 123.6117 236.5232 15.54757934  4009
SIRIUSSAT 2             
1 43596U 98067PH  18253.46692848  .00004930  00000-0  80242-4 0  9999
2 43596  51.6408 313.6198 0004367 128.4989 231.6394 15.54623511  4000
